ONEWEB-0674             
1 55833U 23029AP  24210.16238339 -.00000064  00000+0 -20622-3 0  9990
2 55833  87.8931  66.7957 0002286  73.1100 287.0281 13.14504006 69571
ONEWEB-0675             
1 55834U 23029AQ  24210.18422018  .00000049  00000+0  89503-4 0  9997
2 55834  87.9127  82.0741 0001466  88.8721 271.2579 13.19725034 68758
ONEWEB-0720             
1 55835U 23029AR  24210.17632145  .00000076  00000+0  15788-3 0  9994
2 55835  87.9125  82.0760 0001626  63.1158 297.0141 13.19726056 68651
ONEWEB-0537             
1 56046U 23043A   24210.51015113  .00000121  00000+0  28400-3 0  9999
2 56046  87.9119   5.8722 0001813 104.9677 255.1655 13.16594950 69253
ONEWEB-0538             
1 56047U 23043B   24210.19983016  .00000078  00000+0  17130-3 0  9999
2 56047  87.9118   5.9537 0001513  97.6099 262.5204 13.16594332 69224
ONEWEB-0546             
1 56048U 23043C   24210.18717368  .00000079  00000+0  17213-3 0  9997
2 56048  87.9122   5.9208 0002287 114.5492 245.5878 13.16593943 69214
ONEWEB-0547             
1 56049U 23043D   24210.18503432  .00000105  00000+0  22362-3 0  9994
2 56049  87.9287  21.1404 0001605  92.6785 267.4533 13.21825620 68114
ONEWEB-0548             
1 56050U 23043E   24210.13649801  .00000032  00000+0  48852-4 0  9994
2 56050  87.9118   5.9740 0002300  84.3133 275.8260 13.16594786 69201
